*******************************************************************************
Ephemeris / WWW_USER Mon Mar 10 07:40:59 2025 Pasadena, USA      / Horizons    
*******************************************************************************
Target body name: 584778 (2017 RG16)              {source: JPL#32}
Center body name: Earth (399)                     {source: DE441}
Center-site name: Mauna Kea
*******************************************************************************
Start time      : A.D. 2018-Aug-09 05:04:00.0000 UT      
Stop  time      : A.D. 2018-Aug-09 15:50:00.0000 UT      
Step-size       : 1 minutes
*******************************************************************************
Target pole/equ : undefined
Target radii    : undefined                                                    
Center geodetic : 204.5278, 19.8260847, 4.21024   {E-lon(deg),Lat(deg),Alt(km)}
Center cylindric: 204.5278, 6006.35451, 2151.0229 {E-lon(deg),Dxy(km),Dz(km)}
Center pole/equ : ITRF93                          {East-longitude positive}
Center radii    : 6378.137, 6378.137, 6356.752 km {Equator_a, b, pole_c}       
Target primary  : Sun
Vis. interferer : MOON (R_eq= 1737.400) km        {source: DE441}
Rel. light bend : Sun                             {source: DE441}
Rel. lght bnd GM: 1.3271E+11 km^3/s^2                                          
Small-body perts: Yes                             {source: SB441-N16}
Atmos refraction: NO (AIRLESS)
RA format       : HMS
Time format     : CAL 
Calendar mode   : Mixed Julian/Gregorian
RTS-only print  : NO       
EOP file        : eop.250307.p250603                                           
EOP coverage    : DATA-BASED 1962-JAN-20 TO 2025-MAR-07. PREDICTS-> 2025-JUN-02
Units conversion: 1 au= 149597870.700 km, c= 299792.458 km/s, 1 day= 86400.0 s 
Table cut-offs 1: Elevation (-90.0deg=NO ),Airmass (>38.000=NO), Daylight (YES)
Table cut-offs 2: Solar elongation (  0.0,180.0=NO ),Local Hour Angle( 0.0=NO )
Table cut-offs 3: RA/DEC angular rate (     0.0=NO )                           
*******************************************************************************
Initial IAU76/J2000 heliocentric ecliptic osculating elements (au, days, deg.):
  EPOCH=  2458734.5 ! 2019-Sep-08.00 (TDB)         Residual RMS= .14786        
   EC= .9085798704456644   QR= 7.106644157383132   TP= 2457926.6828443832      
   OM= .547367620295521    W=  323.0265763955561   IN= 74.86683883750447       
  Equivalent ICRF heliocentric cartesian coordinates (au, au/d):
   X= 8.360714527577798E+00  Y=-2.241293784086399E-01  Z= 2.069107023705337E+00
  VX= 1.416407206608659E-03 VY=-1.132497676729848E-03 VZ= 7.848232694960624E-03
Asteroid physical parameters (km, seconds, rotational period in hours):        
   GM= n.a.                RAD= n.a.               ROTPER= n.a.                
   H= 11.32                G= .150                 B-V= n.a.                   
                           ALBEDO= n.a.            STYP= n.a.                  
*******************************************************************************
 Date__(UT)__HR:MN     R.A._________(ICRF)_________DEC
******************************************************
$$SOE
 2018-Aug-09 13:16     00 29 17.436275 -06 38 32.72989
 2018-Aug-09 13:17     00 29 17.419878 -06 38 32.69161
 2018-Aug-09 13:18     00 29 17.403481 -06 38 32.65333
 2018-Aug-09 13:19     00 29 17.387083 -06 38 32.61506
 2018-Aug-09 13:20     00 29 17.370684 -06 38 32.57677
 2018-Aug-09 13:21     00 29 17.354286 -06 38 32.53849
 2018-Aug-09 13:22     00 29 17.337887 -06 38 32.50021
 2018-Aug-09 13:23     00 29 17.321487 -06 38 32.46192
 2018-Aug-09 13:24     00 29 17.305088 -06 38 32.42363
 2018-Aug-09 13:25     00 29 17.288687 -06 38 32.38534
 2018-Aug-09 13:26     00 29 17.272287 -06 38 32.34705
 2018-Aug-09 13:27     00 29 17.255886 -06 38 32.30876
 2018-Aug-09 13:28     00 29 17.239485 -06 38 32.27046
 2018-Aug-09 13:29     00 29 17.223084 -06 38 32.23216
 2018-Aug-09 13:30     00 29 17.206682 -06 38 32.19386
 2018-Aug-09 13:31     00 29 17.190280 -06 38 32.15556
 2018-Aug-09 13:32     00 29 17.173877 -06 38 32.11726
 2018-Aug-09 13:33     00 29 17.157475 -06 38 32.07895
 2018-Aug-09 13:34     00 29 17.141072 -06 38 32.04064
 2018-Aug-09 13:35     00 29 17.124669 -06 38 32.00234
 2018-Aug-09 13:36     00 29 17.108265 -06 38 31.96402
 2018-Aug-09 13:37     00 29 17.091861 -06 38 31.92571
 2018-Aug-09 13:38     00 29 17.075457 -06 38 31.88740
 2018-Aug-09 13:39     00 29 17.059053 -06 38 31.84908
 2018-Aug-09 13:40     00 29 17.042649 -06 38 31.81076
 2018-Aug-09 13:41  t  00 29 17.026244 -06 38 31.77244
 2018-Aug-09 13:42     00 29 17.009839 -06 38 31.73412
 2018-Aug-09 13:43     00 29 16.993434 -06 38 31.69579
 2018-Aug-09 13:44     00 29 16.977028 -06 38 31.65746
 2018-Aug-09 13:45     00 29 16.960623 -06 38 31.61914
 2018-Aug-09 13:46     00 29 16.944217 -06 38 31.58080
 2018-Aug-09 13:47     00 29 16.927811 -06 38 31.54247
 2018-Aug-09 13:48     00 29 16.911405 -06 38 31.50414
 2018-Aug-09 13:49     00 29 16.894998 -06 38 31.46580
 2018-Aug-09 13:50     00 29 16.878592 -06 38 31.42746
 2018-Aug-09 13:51     00 29 16.862185 -06 38 31.38912
 2018-Aug-09 13:52     00 29 16.845778 -06 38 31.35078
 2018-Aug-09 13:53     00 29 16.829371 -06 38 31.31244
 2018-Aug-09 13:54     00 29 16.812964 -06 38 31.27409
 2018-Aug-09 13:55     00 29 16.796557 -06 38 31.23574
 2018-Aug-09 13:56     00 29 16.780149 -06 38 31.19739
 2018-Aug-09 13:57     00 29 16.763742 -06 38 31.15904
 2018-Aug-09 13:58     00 29 16.747334 -06 38 31.12069
 2018-Aug-09 13:59     00 29 16.730926 -06 38 31.08233
 2018-Aug-09 14:00     00 29 16.714518 -06 38 31.04397
 2018-Aug-09 14:01  m  00 29 16.698110 -06 38 31.00562
 2018-Aug-09 14:02  m  00 29 16.681702 -06 38 30.96725
 2018-Aug-09 14:03  m  00 29 16.665294 -06 38 30.92889
 2018-Aug-09 14:04  m  00 29 16.648886 -06 38 30.89053
 2018-Aug-09 14:05  m  00 29 16.632477 -06 38 30.85216
 2018-Aug-09 14:06  m  00 29 16.616069 -06 38 30.81379
 2018-Aug-09 14:07  m  00 29 16.599660 -06 38 30.77542
 2018-Aug-09 14:08  m  00 29 16.583252 -06 38 30.73705
 2018-Aug-09 14:09  m  00 29 16.566843 -06 38 30.69867
 2018-Aug-09 14:10  m  00 29 16.550434 -06 38 30.66030
 2018-Aug-09 14:11  m  00 29 16.534026 -06 38 30.62192
 2018-Aug-09 14:12  m  00 29 16.517617 -06 38 30.58354
 2018-Aug-09 14:13  m  00 29 16.501208 -06 38 30.54515
 2018-Aug-09 14:14  m  00 29 16.484800 -06 38 30.50677
 2018-Aug-09 14:15  m  00 29 16.468391 -06 38 30.46838
 2018-Aug-09 14:16  m  00 29 16.451982 -06 38 30.43000
 2018-Aug-09 14:17  m  00 29 16.435573 -06 38 30.39161
 2018-Aug-09 14:18  m  00 29 16.419165 -06 38 30.35321
 2018-Aug-09 14:19  m  00 29 16.402756 -06 38 30.31482
 2018-Aug-09 14:20  m  00 29 16.386347 -06 38 30.27643
 2018-Aug-09 14:21  m  00 29 16.369939 -06 38 30.23803
 2018-Aug-09 14:22  m  00 29 16.353530 -06 38 30.19963
 2018-Aug-09 14:23  m  00 29 16.337122 -06 38 30.16123
 2018-Aug-09 14:24  m  00 29 16.320713 -06 38 30.12282
 2018-Aug-09 14:25  m  00 29 16.304305 -06 38 30.08442
 2018-Aug-09 14:26  m  00 29 16.287896 -06 38 30.04601
 2018-Aug-09 14:27  m  00 29 16.271488 -06 38 30.00760
 2018-Aug-09 14:28  m  00 29 16.255080 -06 38 29.96919
 2018-Aug-09 14:29  m  00 29 16.238672 -06 38 29.93078
 2018-Aug-09 14:30  m  00 29 16.222264 -06 38 29.89237
 2018-Aug-09 14:31  m  00 29 16.205856 -06 38 29.85395
 2018-Aug-09 14:32  m  00 29 16.189448 -06 38 29.81553
 2018-Aug-09 14:33  m  00 29 16.173040 -06 38 29.77711
 2018-Aug-09 14:34  m  00 29 16.156633 -06 38 29.73869
 2018-Aug-09 14:35  m  00 29 16.140225 -06 38 29.70027
 2018-Aug-09 14:36  m  00 29 16.123818 -06 38 29.66184
 2018-Aug-09 14:37  m  00 29 16.107411 -06 38 29.62342
 2018-Aug-09 14:38  m  00 29 16.091004 -06 38 29.58499
 2018-Aug-09 14:39  m  00 29 16.074597 -06 38 29.54656
 2018-Aug-09 14:40  m  00 29 16.058190 -06 38 29.50812
 2018-Aug-09 14:41  m  00 29 16.041784 -06 38 29.46969
 2018-Aug-09 14:42  m  00 29 16.025378 -06 38 29.43125
 2018-Aug-09 14:43 Am  00 29 16.008971 -06 38 29.39281
 2018-Aug-09 14:44 Am  00 29 15.992565 -06 38 29.35437
 2018-Aug-09 14:45 Am  00 29 15.976160 -06 38 29.31593
 2018-Aug-09 14:46 Am  00 29 15.959754 -06 38 29.27749
 2018-Aug-09 14:47 Am  00 29 15.943349 -06 38 29.23904
 2018-Aug-09 14:48 Am  00 29 15.926944 -06 38 29.20059
 2018-Aug-09 14:49 Am  00 29 15.910539 -06 38 29.16215
 2018-Aug-09 14:50 Am  00 29 15.894134 -06 38 29.12369
 2018-Aug-09 14:51 Am  00 29 15.877729 -06 38 29.08524
 2018-Aug-09 14:52 Am  00 29 15.861325 -06 38 29.04679
 2018-Aug-09 14:53 Am  00 29 15.844921 -06 38 29.00833
 2018-Aug-09 14:54 Am  00 29 15.828517 -06 38 28.96987
 2018-Aug-09 14:55 Am  00 29 15.812114 -06 38 28.93141
 2018-Aug-09 14:56 Am  00 29 15.795711 -06 38 28.89295
 2018-Aug-09 14:57 Am  00 29 15.779308 -06 38 28.85449
 2018-Aug-09 14:58 Am  00 29 15.762905 -06 38 28.81602
 2018-Aug-09 14:59 Am  00 29 15.746503 -06 38 28.77755
 2018-Aug-09 15:00 Am  00 29 15.730101 -06 38 28.73909
 2018-Aug-09 15:01 Am  00 29 15.713699 -06 38 28.70062
 2018-Aug-09 15:02 Am  00 29 15.697297 -06 38 28.66214
 2018-Aug-09 15:03 Am  00 29 15.680896 -06 38 28.62367
 2018-Aug-09 15:04 Am  00 29 15.664495 -06 38 28.58519
 2018-Aug-09 15:05 Am  00 29 15.648095 -06 38 28.54672
 2018-Aug-09 15:06 Am  00 29 15.631695 -06 38 28.50824
 2018-Aug-09 15:07 Am  00 29 15.615295 -06 38 28.46975
 2018-Aug-09 15:08 Am  00 29 15.598895 -06 38 28.43127
 2018-Aug-09 15:09 Am  00 29 15.582496 -06 38 28.39279
 2018-Aug-09 15:10 Am  00 29 15.566097 -06 38 28.35430
 2018-Aug-09 15:11 Nm  00 29 15.549699 -06 38 28.31581
 2018-Aug-09 15:12 Nm  00 29 15.533301 -06 38 28.27732
 2018-Aug-09 15:13 Nm  00 29 15.516903 -06 38 28.23883
 2018-Aug-09 15:14 Nm  00 29 15.500506 -06 38 28.20034
 2018-Aug-09 15:15 Nm  00 29 15.484109 -06 38 28.16184
 2018-Aug-09 15:16 Nm  00 29 15.467712 -06 38 28.12335
 2018-Aug-09 15:17 Nm  00 29 15.451316 -06 38 28.08485
 2018-Aug-09 15:18 Nm  00 29 15.434920 -06 38 28.04635
